{
  "type": "FeatureCollection",
  "features": [
    {
      "type": "Feature",
      "properties": {
        "norad_id": 66531,
        "name": "STARLINK-35960",
        "group": "last-30-days",
        "lat": -33.34791037021577,
        "lon": 50.505434390455086,
        "alt_km": 364.0245308036874,
        "timestamp": "2025-12-05T16:54:13.486140+00:00",
        "meta_object_name": "STARLINK-35960",
        "meta_object_id": "2025-265R",
        "meta_epoch": "2025-12-05T06:00:02.000160",
        "meta_mean_motion": 15.70699104,
        "meta_eccentricity": 0.00014744,
        "meta_inclination": 43.0002,
        "meta_ra_of_asc_node": 98.1678,
        "meta_arg_of_pericenter": 266.3877,
        "meta_mean_anomaly": 349.4727,
        "meta_ephemeris_type": 0,
        "meta_classification_type": "U",
        "meta_norad_cat_id": 66531,
        "meta_element_set_no": 999,
        "meta_rev_at_epoch": 379,
        "meta_bstar": -0.016612552,
        "meta_mean_motion_dot": -0.01846737,
        "meta_mean_motion_ddot": 0,
        "tle_line1": "1 66531U 25265R   25339.25002315 -.01846737  00000+0 -16613-1 0  9996",
        "tle_line2": "2 66531  43.0002  98.1678 0001474 266.3877 349.4727 15.70699104  3793"
      },
      "geometry": {
        "type": "Point",
        "coordinates": [
          50.505434390455086,
          -33.34791037021577
        ]
      }
    },
    {
      "type": "Feature",
      "properties": {
        "norad_id": 66532,
        "name": "STARLINK-35914",
        "group": "last-30-days",
        "lat": -32.40806941091288,
        "lon": 52.48656243592563,
        "alt_km": 364.0815025278016,
        "timestamp": "2025-12-05T16:54:13.486149+00:00",
        "meta_object_name": "STARLINK-35914",
        "meta_object_id": "2025-265S",
        "meta_epoch": "2025-12-05T06:00:02.000160",
        "meta_mean_motion": 15.7069838,
        "meta_eccentricity": 0.00013039,
        "meta_inclination": 43,
        "meta_ra_of_asc_node": 98.1634,
        "meta_arg_of_pericenter": 267.3493,
        "meta_mean_anomaly": 350.4311,
        "meta_ephemeris_type": 0,
        "meta_classification_type": "U",
        "meta_norad_cat_id": 66532,
        "meta_element_set_no": 999,
        "meta_rev_at_epoch": 379,
        "meta_bstar": -0.016629449,
        "meta_mean_motion_dot": -0.01885045,
        "meta_mean_motion_ddot": 0,
        "tle_line1": "1 66532U 25265S   25339.25002315 -.01885045  00000+0 -16629-1 0  9999",
        "tle_line2": "2 66532  43.0000  98.1634 0001303 267.3493 350.4311 15.70698380  3796"
      },
      "geometry": {
        "type": "Point",
        "coordinates": [
          52.48656243592563,
          -32.40806941091288
        ]
      }
    },
    {
      "type": "Feature",
      "properties": {
        "norad_id": 66533,
        "name": "STARLINK-35707",
        "group": "last-30-days",
        "lat": -31.436486154340628,
        "lon": 54.42852725512537,
        "alt_km": 363.9631644242709,
        "timestamp": "2025-12-05T16:54:13.486158+00:00",
        "meta_object_name": "STARLINK-35707",
        "meta_object_id": "2025-265T",
        "meta_epoch": "2025-12-05T06:00:02.000160",
        "meta_mean_motion": 15.70705234,
        "meta_eccentricity": 0.00014769,
        "meta_inclination": 43,
        "meta_ra_of_asc_node": 98.1586,
        "meta_arg_of_pericenter": 266.6248,
        "meta_mean_anomaly": 353.0666,
        "meta_ephemeris_type": 0,
        "meta_classification_type": "U",
        "meta_norad_cat_id": 66533,
        "meta_element_set_no": 999,
        "meta_rev_at_epoch": 379,
        "meta_bstar": -0.016681589,
        "meta_mean_motion_dot": -0.0189091,
        "meta_mean_motion_ddot": 0,
        "tle_line1": "1 66533U 25265T   25339.25002315 -.01890910  00000+0 -16682-1 0  9996",
        "tle_line2": "2 66533  43.0000  98.1586 0001476 266.6248 353.0666 15.70705234  3793"
      },
      "geometry": {
        "type": "Point",
        "coordinates": [
          54.42852725512537,
          -31.436486154340628
        ]
      }
    },
    {
      "type": "Feature",
      "properties": {
        "norad_id": 66534,
        "name": "STARLINK-35976",
        "group": "last-30-days",
        "lat": -30.43893658590999,
        "lon": 56.325608731854295,
        "alt_km": 363.7622280693713,
        "timestamp": "2025-12-05T16:54:13.486167+00:00",
        "meta_object_name": "STARLINK-35976",
        "meta_object_id": "2025-265U",
        "meta_epoch": "2025-12-05T06:00:02.000160",
        "meta_mean_motion": 15.7066097,
        "meta_eccentricity": 0.00015106,
        "meta_inclination": 43.0004,
        "meta_ra_of_asc_node": 98.154,
        "meta_arg_of_pericenter": 276.3039,
        "meta_mean_anomaly": 345.3375,
        "meta_ephemeris_type": 0,
        "meta_classification_type": "U",
        "meta_norad_cat_id": 66534,
        "meta_element_set_no": 999,
        "meta_rev_at_epoch": 379,
        "meta_bstar": -0.016275056,
        "meta_mean_motion_dot": -0.01811557,
        "meta_mean_motion_ddot": 0,
        "tle_line1": "1 66534U 25265U   25339.25002315 -.01811557  00000+0 -16275-1 0  9995",
        "tle_line2": "2 66534  43.0004  98.1540 0001510 276.3039 345.3375 15.70660970  3791"
      },
      "geometry": {
        "type": "Point",
        "coordinates": [
          56.325608731854295,
          -30.43893658590999
        ]
      }
    },
    {
      "type": "Feature",
      "properties": {
        "norad_id": 66535,
        "name": "STARLINK-35514",
        "group": "last-30-days",
        "lat": -29.41099493398981,
        "lon": 58.188660784798,
        "alt_km": 363.82946786138564,
        "timestamp": "2025-12-05T16:54:13.486175+00:00",
        "meta_object_name": "STARLINK-35514",
        "meta_object_id": "2025-265V",
        "meta_epoch": "2025-12-05T06:00:02.000160",
        "meta_mean_motion": 15.70700429,
        "meta_eccentricity": 0.0001487,
        "meta_inclination": 43.0002,
        "meta_ra_of_asc_node": 98.1495,
        "meta_arg_of_pericenter": 270.0189,
        "meta_mean_anomaly": 353.5103,
        "meta_ephemeris_type": 0,
        "meta_classification_type": "U",
        "meta_norad_cat_id": 66535,
        "meta_element_set_no": 999,
        "meta_rev_at_epoch": 379,
        "meta_bstar": -0.016644298,
        "meta_mean_motion_dot": -0.0188682,
        "meta_mean_motion_ddot": 0,
        "tle_line1": "1 66535U 25265V   25339.25002315 -.01886820  00000+0 -16644-1 0  9991",
        "tle_line2": "2 66535  43.0002  98.1495 0001487 270.0189 353.5103 15.70700429  3793"
      },
      "geometry": {
        "type": "Point",
        "coordinates": [
          58.188660784798,
          -29.41099493398981
        ]
      }
    },
    {
      "type": "Feature",
      "properties": {
        "norad_id": 66536,
        "name": "STARLINK-35640",
        "group": "last-30-days",
        "lat": -28.35797702323681,
        "lon": 60.0129337325744,
        "alt_km": 363.83842989502045,
        "timestamp": "2025-12-05T16:54:13.486185+00:00",
        "meta_object_name": "STARLINK-35640",
        "meta_object_id": "2025-265W",
        "meta_epoch": "2025-12-05T06:00:02.000160",
        "meta_mean_motion": 15.70705964,
        "meta_eccentricity": 0.00014746,
        "meta_inclination": 43.0001,
        "meta_ra_of_asc_node": 98.1446,
        "meta_arg_of_pericenter": 267.5366,
        "meta_mean_anomaly": 357.9062,
        "meta_ephemeris_type": 0,
        "meta_classification_type": "U",
        "meta_norad_cat_id": 66536,
        "meta_element_set_no": 999,
        "meta_rev_at_epoch": 377,
        "meta_bstar": -0.016697459,
        "meta_mean_motion_dot": -0.01892557,
        "meta_mean_motion_ddot": 0,
        "tle_line1": "1 66536U 25265W   25339.25002315 -.01892557  00000+0 -16697-1 0  9994",
        "tle_line2": "2 66536  43.0001  98.1446 0001474 267.5366 357.9062 15.70705964  3772"
      },
      "geometry": {
        "type": "Point",
        "coordinates": [
          60.0129337325744,
          -28.35797702323681
        ]
      }
    },
    {
      "type": "Feature",
      "properties": {
        "norad_id": 66537,
        "name": "STARLINK-35582",
        "group": "last-30-days",
        "lat": -27.28244820298218,
        "lon": 61.79903507179996,
        "alt_km": 363.7874392078711,
        "timestamp": "2025-12-05T16:54:13.486194+00:00",
        "meta_object_name": "STARLINK-35582",
        "meta_object_id": "2025-265X",
        "meta_epoch": "2025-12-05T06:00:02.000160",
        "meta_mean_motion": 15.70701697,
        "meta_eccentricity": 0.0001428,
        "meta_inclination": 43.0004,
        "meta_ra_of_asc_node": 98.1396,
        "meta_arg_of_pericenter": 268.7517,
        "meta_mean_anomaly": 358.6091,
        "meta_ephemeris_type": 0,
        "meta_classification_type": "U",
        "meta_norad_cat_id": 66537,
        "meta_element_set_no": 999,
        "meta_rev_at_epoch": 379,
        "meta_bstar": -0.016633609,
        "meta_mean_motion_dot": -0.01885789,
        "meta_mean_motion_ddot": 0,
        "tle_line1": "1 66537U 25265X   25339.25002315 -.01885789  00000+0 -16634-1 0  9995",
        "tle_line2": "2 66537  43.0004  98.1396 0001428 268.7517 358.6091 15.70701697  3791"
      },
      "geometry": {
        "type": "Point",
        "coordinates": [
          61.79903507179996,
          -27.28244820298218
        ]
      }
    }
  ]
}